#aV2024  3 11  0  0  0.00000000     288 DD+AD WGS84 FIT  NGA
## 2305  86400.00000000   300.00000000 60380 0.0000000000000
+   32     1  2  3  4  5  6  7  8  9 10 11 12 13 14 15 16 17
+         18 19 20 21 22 23 24 25 26 27 28 29 30 31 32  0  0
+          0  0  0  0  0  0  0  0  0  0  0  0  0  0  0  0  0
+          0  0  0  0  0  0  0  0  0  0  0  0  0  0  0  0  0
+          0  0  0  0  0  0  0  0  0  0  0  0  0  0  0  0  0
++         2  2  2  2  2  2  2  2  2  2  2  2  2  2  2  2  2
++         2  2  2  2  2  2  2  2  2  2  2  2  2  2  2  0  0
++         0  0  0  0  0  0  0  0  0  0  0  0  0  0  0  0  0
++         0  0  0  0  0  0  0  0  0  0  0  0  0  0  0  0  0
++         0  0  0  0  0  0  0  0  0  0  0  0  0  0  0  0  0
%c cc cc ccc ccc cccc cccc cccc cccc ccccc ccccc ccccc ccccc
%c cc cc ccc ccc cccc cccc cccc cccc ccccc ccccc ccccc ccccc
%f  0.0000000  0.000000000  0.00000000000  0.000000000000000
%f  0.0000000  0.000000000  0.00000000000  0.000000000000000
%i    0    0    0    0      0      0      0      0         0
%i    0    0    0    0      0      0      0      0         0
/*      NGA, ST. LOUIS,MO.                                  
/*   EPHEMERIS COMPUTED FROM 2 DAYS OF DATA                 
/*   EPOCHA v9 SMOOTHER                                     
/*   G2296 IERS2010 SATIGS SATAPC                           
*  2024  3 11 20 15  0.00000000
P  1  13914.738710  -3810.261896  21968.539351    173.464626                    
V  1   9637.510517  26964.315973  -1085.600418      0.019576                    
P  2  17602.983721   5279.597710  19760.210437   -471.880188                    
V  2   9486.960945  21995.257338 -14436.572541      0.061464                    
P  3  19773.747460  -7397.353892  15897.283378    246.138430                    
V  3 -11751.305579  16815.404148  22355.587432      0.229286                    
P  4  26041.021401   1355.889488  -5397.497224    312.532476                    
V  4   6224.634842   3799.163102  30763.541969      0.091315                    
P  5 -14411.876750  -5610.521916 -21774.143996   -165.022270                    
V  5  15909.971357 -22063.670862  -4794.421118     -0.014025                    
P  6  -4914.921124 -25315.145241   6170.359018    372.088801                    
V  6   4429.808924   6633.234998  31186.032935     -0.162292                    
P  7   9008.809366 -15081.744200 -19280.651229    -82.006016                    
V  7  10683.136567  23479.852655 -13508.651843     -0.088008                    
P  8  25862.526628   6000.891434  -3702.624070     47.755108                    
V  8  -4824.065775   2011.835084 -30870.286477      0.276169                    
P  9  18911.806385  -9047.121232 -16421.150572    121.198057                    
V  9  20240.369020   4665.212593  20784.528071      0.131067                    
P 10  -8157.675233  22334.487740  11698.957386      0.044879                    
V 10 -10778.553535  10071.474995 -27533.948416     -0.015639                    
P 11 -11895.511363 -22978.102659  -6082.016347   -603.577655                    
V 11    -15.788160  -8133.667774  30592.223576     -0.118498                    
P 12 -20253.537922   5277.011186  16028.216960   -486.231251                    
V 12  12862.183326 -16602.132467  21398.595084     -0.036024                    
P 13 -20461.072638 -13776.748148 -10343.313114    633.261371                    
V 13  12759.918279   1900.259795 -28109.010415      0.033614                    
P 14  11673.562877 -22379.506878   7965.862943    347.983274                    
V 14   9056.343861  -5608.240641 -29307.019136      0.097812                    
P 15 -26166.313532  -3469.059094  -4300.099017    136.620956                    
V 15   4890.179059  -3295.819479 -30405.501867      0.039861                    
P 16  10159.312598  11527.186761 -21984.597426   -343.417499                    
V 16 -19150.207447  19222.875913   1696.314809      0.087782                    
P 17   6413.498787 -14042.238606  22048.171175    714.044769                    
V 17  26240.407935   6138.036854  -3645.726072     -0.014433                    
P 18  -8199.295138  16096.265421 -19391.025185   -573.526848                    
V 18  -9470.657238 -22818.578075 -15106.676039     -0.076247                    
P 19  -4636.216242 -15946.720759  20624.250385    452.595689                    
V 19  25743.870771   6322.299165  10223.103690      0.053077                    
P 20  -6258.324645 -17052.777205 -19368.431153    384.300375                    
V 20  13181.110901 -20933.198220  13970.991039     -0.014148                    
P 21  18365.770602  11198.435215  16669.718317    131.740388                    
V 21   7734.627531  18366.620621 -20490.285527     -0.014731                    
P 22   5989.799882 -21344.155394  15266.018110     17.527547                    
V 22  14173.645610 -12039.741717 -22756.039225     -0.059673                    
P 23 -16333.894323  20808.367401   -377.266434    174.906147                    
V 23  -1624.879533  -1892.379100 -32248.289296      0.085545                    
P 24 -18211.553642  -7721.075539  17500.678724   -444.859474                    
V 24  -8410.599394 -21466.244829 -17396.753011     -0.054532                    
P 25 -19697.781731  15301.624948   8384.608145    491.034222                    
V 25   4440.942306 -10772.520937  29186.674452      0.010115                    
P 26   1784.710158  20021.369791 -17327.198336    180.671736                    
V 26 -14458.524344  16684.956763  18311.033102     -0.044844                    
P 27  18734.847129  12972.861899 -14278.284359    -11.021256                    
V 27 -17534.116297  -1000.564578 -23975.012177     -0.028837                    
P 28   3857.356028  24821.131543   8618.617392   -160.914302                    
V 28  -6589.453158  -9132.822849  29183.913652     -0.137931                    
P 29 -20951.586197   5738.699871 -15404.228690   -605.060283                    
V 29 -18464.541521  -6183.106060  22786.044109      0.009886                    
P 30   1273.746771 -23100.902128 -12667.880822   -421.102616                    
V 30   8727.761540  14302.900401 -25211.785033      0.052327                    
P 31   9788.056642  24419.689122  -1509.054001   -227.965880                    
V 31  -2588.228879   2708.088125  31807.684728     -0.000663                    
P 32  -1876.007598  15188.321147  21915.642154   -615.447814                    
V 32 -27012.589951  -4173.668124    384.079025     -0.013586                    
EOF
